NORAD_CAT_ID,OBJECT_NAME,OBJECT_TYPE,EPOCH,MEAN_MOTION,ECCENTRICITY,INCLINATION,RA_OF_ASC_NODE,ARG_OF_PERICENTER,MEAN_ANOMALY,BSTAR,MEAN_MOTION_DOT,MEAN_MOTION_DDOT,TLE_LINE0,TLE_LINE1,TLE_LINE2,SEMIMAJOR_AXIS,PERIOD,APOGEE,PERIGEE,DECAYED
51978.0,STARLINK-3666,PAYLOAD,2023-05-14 20:10:42,15.08851369,0.0001165,53.2165,342.3158,88.7097,271.4029,0.00029057,4.341e-05,0.0,0 STARLINK-3666,1 51978U 22025Y   23134.84076734  .00004341  00000-0  29057-3 0  9991,2 51978  53.2165 342.3158 0001165  88.7097 271.4029 15.08851369 65587,6917.846,95.437,540.517,538.905,0.0
51978.0,STARLINK-3666,PAYLOAD,2023-05-15 07:18:24,15.08843004,7.93e-05,53.214,340.2346,83.8841,276.2242,4.3038e-05,3.97e-06,0.0,0 STARLINK-3666,1 51978U 22025Y   23135.30444947  .00000397  00000-0  43038-4 0  9991,2 51978  53.2140 340.2346 0000793  83.8841 276.2242 15.08843004 65650,6917.871,95.437,540.285,539.188,0.0
51978.0,STARLINK-3666,PAYLOAD,2023-05-15 20:01:30,15.08833858,0.0001142,53.2171,337.8551,82.7237,277.3885,-0.00015003,-2.674e-05,0.0,0 STARLINK-3666,1 51978U 22025Y   23135.83437505 -.00002674  00000-0 -15003-3 0  9993,2 51978  53.2171 337.8551 0001142  82.7237 277.3885 15.08833858 66821,6917.899,95.438,540.554,538.974,0.0
51978.0,STARLINK-3666,PAYLOAD,2023-05-15 23:12:16,15.08837248,0.0001292,53.2171,337.2606,84.8655,275.2484,-8.3728e-05,-1.62e-05,0.0,0 STARLINK-3666,1 51978U 22025Y   23135.96685640 -.00001620  00000-0 -83728-4 0  9992,2 51978  53.2171 337.2606 0001292  84.8655 275.2484 15.08837248 65759,6917.889,95.438,540.648,538.86,0.0
51978.0,STARLINK-3666,PAYLOAD,2023-05-16 19:52:16,15.08845917,0.0001123,53.2179,333.3954,76.3602,283.7515,0.00012504,1.703e-05,0.0,0 STARLINK-3666,1 51978U 22025Y   23136.82797203  .00001703  00000-0  12504-3 0  9990,2 51978  53.2179 333.3954 0001123  76.3602 283.7515 15.08845917 66977,6917.862,95.437,540.504,538.95,0.0
51978.0,STARLINK-3666,PAYLOAD,2023-05-17 11:46:08,15.08832509,0.0001216,53.2161,330.4196,77.9964,282.1165,7.6012e-05,9.22e-06,0.0,0 STARLINK-3666,1 51978U 22025Y   23137.49038185  .00000922  00000-0  76012-4 0  9998,2 51978  53.2161 330.4196 0001216  77.9964 282.1165 15.08832509 67074,6917.903,95.438,540.61,538.927,0.0
51978.0,STARLINK-3666,PAYLOAD,2023-05-17 19:43:04,15.08844837,9.97e-05,53.2163,328.9344,72.8864,287.2237,0.00026777,3.977e-05,0.0,0 STARLINK-3666,1 51978U 22025Y   23137.82157652  .00003977  00000-0  26777-3 0  9991,2 51978  53.2163 328.9344 0000997  72.8864 287.2237 15.08844837 67120,6917.866,95.437,540.42,539.041,0.0
51978.0,STARLINK-3666,PAYLOAD,2023-05-18 11:36:55,15.08841636,9.79e-05,53.2161,325.9605,73.6171,286.4929,0.00040533,6.169e-05,0.0,0 STARLINK-3666,1 51978U 22025Y   23138.48397947  .00006169  00000-0  40533-3 0  9999,2 51978  53.2161 325.9605 0000979  73.6171 286.4929 15.08841636 67229,6917.875,95.437,540.418,539.063,0.0
51978.0,STARLINK-3666,PAYLOAD,2023-05-18 19:33:51,15.08845963,6.27e-05,53.2159,324.474,79.0233,281.0829,0.00038822,5.897e-05,0.0,0 STARLINK-3666,1 51978U 22025Y   23138.81517757  .00005897  00000-0  38822-3 0  9994,2 51978  53.2159 324.4740 0000627  79.0233 281.0829 15.08845963 66180,6917.862,95.437,540.161,539.293,0.0
51978.0,STARLINK-3666,PAYLOAD,2023-05-19 05:06:10,15.08837763,0.000118,53.2158,322.6891,78.76,281.3524,0.00014843,2.075e-05,0.0,0 STARLINK-3666,1 51978U 22025Y   23139.21261926  .00002075  00000-0  14843-3 0  9995,2 51978  53.2158 322.6891 0001180  78.7600 281.3524 15.08837763 67337,6917.887,95.438,540.569,538.936,0.0
51978.0,STARLINK-3666,PAYLOAD,2023-05-19 19:24:38,15.08847185,0.0001019,53.2157,320.0125,76.4202,283.6903,0.00035672,5.395e-05,0.0,0 STARLINK-3666,1 51978U 22025Y   23139.80877810  .00005395  00000-0  35672-3 0  9996,2 51978  53.2157 320.0125 0001019  76.4202 283.6903 15.08847185 66336,6917.858,95.437,540.428,539.018,0.0
51978.0,STARLINK-3666,PAYLOAD,2023-05-20 17:40:01,15.08853098,8.29e-05,53.2158,315.8493,84.6387,275.47,0.00034964,5.283e-05,0.0,0 STARLINK-3666,1 51978U 22025Y   23140.73613367  .00005283  00000-0  34964-3 0  9994,2 51978  53.2158 315.8493 0000829  84.6387 275.4700 15.08853098 67560,6917.84,95.437,540.279,539.132,0.0
51978.0,STARLINK-3666,PAYLOAD,2023-05-20 19:15:24,15.08857538,8.74e-05,53.2158,315.5518,83.5951,276.5141,0.00044401,6.789e-05,0.0,0 STARLINK-3666,1 51978U 22025Y   23140.80237193  .00006789  00000-0  44401-3 0  9990,2 51978  53.2158 315.5518 0000874  83.5951 276.5141 15.08857538 66484,6917.827,95.436,540.296,539.087,0.0
51978.0,STARLINK-3666,PAYLOAD,2023-05-21 11:09:17,15.08837116,0.0001306,53.2153,312.5805,68.6493,291.4638,4.1113e-05,3.66e-06,0.0,0 STARLINK-3666,1 51978U 22025Y   23141.46478075  .00000366  00000-0  41113-4 0  9992,2 51978  53.2153 312.5805 0001306  68.6493 291.4638 15.08837116 67670,6917.889,95.438,540.658,538.851,0.0
51978.0,STARLINK-3666,PAYLOAD,2023-05-21 17:30:49,15.08826274,7.39e-05,53.2158,311.3903,59.8621,300.2445,-0.00014811,-2.643e-05,0.0,0 STARLINK-3666,1 51978U 22025Y   23141.72974537 -.00002643  00000-0 -14811-3 0  9991,2 51978  53.2158 311.3903 0000739  59.8621 300.2445 15.08826274 67718,6917.922,95.438,540.299,539.276,0.0
51978.0,STARLINK-3666,PAYLOAD,2023-05-21 20:41:36,15.08834156,8.68e-05,53.216,310.7943,66.4593,293.649,1.021e-05,-1.25e-06,0.0,0 STARLINK-3666,1 51978U 22025Y   23141.86222363 -.00000125  00000-0  10210-4 0  9991,2 51978  53.2160 310.7943 0000868  66.4593 293.6490 15.08834156 66647,6917.898,95.438,540.364,539.163,0.0
51978.0,STARLINK-3666,PAYLOAD,2023-05-22 17:21:36,15.08851466,9.38e-05,53.2159,306.9282,58.8462,301.2622,0.00060457,9.35e-05,0.0,0 STARLINK-3666,1 51978U 22025Y   23142.72334303  .00009350  00000-0  60457-3 0  9990,2 51978  53.2159 306.9282 0000938  58.8462 301.2622 15.08851466 67867,6917.845,95.437,540.359,539.061,0.0
51978.0,STARLINK-3666,PAYLOAD,2023-05-23 10:50:51,15.08853086,0.0001423,53.216,303.6571,71.8671,288.2476,0.00052481,8.077e-05,0.0,0 STARLINK-3666,1 51978U 22025Y   23143.45198373  .00008077  00000-0  52481-3 0  9999,2 51978  53.2160 303.6571 0001423  71.8671 288.2476 15.08853086 67974,6917.84,95.437,540.69,538.721,0.0
51978.0,STARLINK-3666,PAYLOAD,2023-05-23 17:12:23,15.08850078,0.0001139,53.2159,302.4676,76.423,283.6889,0.00033298,5.017e-05,0.0,0 STARLINK-3666,1 51978U 22025Y   23143.71694221  .00005017  00000-0  33298-3 0  9997,2 51978  53.2159 302.4676 0001139  76.4230 283.6889 15.08850078 66920,6917.85,95.437,540.503,538.927,0.0
51978.0,STARLINK-3666,PAYLOAD,2023-05-24 10:41:38,15.08838584,0.0001017,53.2161,299.1974,71.7735,288.3367,6.8296e-05,7.99e-06,0.0,0 STARLINK-3666,1 51978U 22025Y   23144.44558548  .00000799  00000-0  68296-4 0  9998,2 51978  53.2161 299.1974 0001017  71.7735 288.3367 15.08838584 68124,6917.885,95.438,540.453,539.046,0.0
51978.0,STARLINK-3666,PAYLOAD,2023-05-24 15:27:48,15.08838267,0.0001061,53.2172,298.3063,61.2353,298.8746,-2.969e-06,-3.35e-06,0.0,0 STARLINK-3666,1 51978U 22025Y   23144.64430740 -.00000335  00000-0 -29690-5 0  9997,2 51978  53.2172 298.3063 0001061  61.2353 298.8746 15.08838267 67062,6917.886,95.438,540.485,539.017,0.0
51978.0,STARLINK-3666,PAYLOAD,2023-05-25 16:53:58,15.08845559,9.78e-05,53.2165,293.5453,74.9171,285.193,0.00013033,1.787e-05,0.0,0 STARLINK-3666,1 51978U 22025Y   23145.70414410  .00001787  00000-0  13033-3 0  9993,2 51978  53.2165 293.5453 0000978  74.9171 285.1930 15.08845559 68314,6917.863,95.437,540.405,539.052,0.0
51978.0,STARLINK-3666,PAYLOAD,2023-05-26 13:33:59,15.08836936,8.68e-05,53.2159,289.6846,77.0686,283.0403,8.3325e-05,1.039e-05,0.0,0 STARLINK-3666,1 51978U 22025Y   23146.56526915  .00001039  00000-0  83325-4 0  9994,2 51978  53.2159 289.6846 0000868  77.0686 283.0403 15.08836936 67356,6917.89,95.438,540.355,539.154,0.0
51978.0,STARLINK-3666,PAYLOAD,2023-05-26 15:09:22,15.08836454,8.3e-05,53.2162,289.3858,71.4172,288.6911,0.00015623,2.199e-05,0.0,0 STARLINK-3666,1 51978U 22025Y   23146.63150947  .00002199  00000-0  15623-3 0  9993,2 51978  53.2162 289.3858 0000830  71.4172 288.6911 15.08836454 68459,6917.891,95.438,540.33,539.182,0.0
51978.0,STARLINK-3666,PAYLOAD,2023-05-27 16:35:32,15.0884129,9.41e-05,53.2167,284.6279,86.7139,273.3961,2.4615e-05,1.04e-06,0.0,0 STARLINK-3666,1 51978U 22025Y   23147.69135126  .00000104  00000-0  24615-4 0  9998,2 51978  53.2167 284.6279 0000941  86.7139 273.3961 15.08841290 68612,6917.876,95.437,540.392,539.09,0.0
51978.0,STARLINK-3666,PAYLOAD,2023-05-28 02:07:51,15.08839561,7.92e-05,53.2167,282.8438,80.7745,279.3337,8.9794e-05,1.142e-05,0.0,0 STARLINK-3666,1 51978U 22025Y   23148.08879095  .00001142  00000-0  89794-4 0  9994,2 51978  53.2167 282.8438 0000792  80.7745 279.3337 15.08839561 67586,6917.882,95.438,540.295,539.199,0.0
51978.0,STARLINK-3666,PAYLOAD,2023-05-28 16:26:21,15.08755383,0.0001096,53.2177,280.1681,106.8877,253.2236,0.0015714,0.00024751,0.0,0 STARLINK-3666,1 51978U 22025Y   23148.68497254  .00024751  00000-0  15714-2 0  9993,2 51978  53.2177 280.1681 0001096 106.8877 253.2236 15.08755383 68761,6918.139,95.443,540.762,539.246,0.0
51978.0,STARLINK-3666,PAYLOAD,2023-05-29 01:58:38,15.08845476,9.27e-05,53.2179,278.384,79.8862,280.2235,0.00013006,1.783e-05,0.0,0 STARLINK-3666,1 51978U 22025Y   23149.08238625  .00001783  00000-0  13006-3 0  9996,2 51978  53.2179 278.3840 0000927  79.8862 280.2235 15.08845476 68823,6917.864,95.437,540.37,539.087,0.0
51978.0,STARLINK-3666,PAYLOAD,2023-05-29 14:41:44,15.08825859,0.0001144,53.2158,276.0067,56.2636,303.8465,1.5999e-05,-3.3e-07,0.0,0 STARLINK-3666,1 51978U 22025Y   23149.61232213 -.00000033  00000-0  15999-4 0  9994,2 51978  53.2158 276.0067 0001144  56.2636 303.8465 15.08825859 67814,6917.924,95.438,540.58,538.997,0.0
51978.0,STARLINK-3666,PAYLOAD,2023-05-30 08:10:58,15.08839496,8.58e-05,53.2174,272.7336,72.1391,287.9695,3.3773e-05,2.5e-06,0.0,0 STARLINK-3666,1 51978U 22025Y   23150.34095511  .00000250  00000-0  33773-4 0  9994,2 51978  53.2174 272.7336 0000858  72.1391 287.9695 15.08839496 69013,6917.882,95.438,540.34,539.153,0.0
